Starlink_35174
1 65615U 25207Z   25280.00001157 -.01581548  00000+0 -36971-1 0  9990
2 65615  97.6031 343.1661 0001960  60.5613  64.1776 15.45269813  4933